STARLINK-32036          
1 60141U 24120G   24190.58334491 -.00915409  00000+0 -32374-2 0  9994
2 60141  53.1499 284.6384 0000955  72.1069 244.2900 15.90356211  2987
STARLINK-32031          
1 60142U 24120H   24190.58334491 -.00921180  00000+0 -32537-2 0  9999
2 60142  53.1497 284.6336 0001233  80.3069 238.2879 15.90390850  2989
STARLINK-32027          
1 60143U 24120J   24190.58334491 -.01002982  31806-3 -24709-2 0  9995
2 60143  53.1498 284.5762 0000898  42.8172 303.4824 15.95341263  2981
STARLINK-32033          
1 60144U 24120K   24190.58334491 -.00930948  00000+0 -32801-2 0  9997
2 60144  53.1500 284.6243 0001300  75.2115 247.9321 15.90459702  2760
STARLINK-32029          
1 60145U 24120L   24190.58334491 -.00933700  00000+0 -32856-2 0  9997
2 60145  53.1498 284.6195 0001043  82.9176 242.5853 15.90493050  2821
STARLINK-32127          
1 60146U 24120M   24190.58334491 -.00936957  00000+0 -32927-2 0  9994
2 60146  53.1497 284.6160 0001264  76.0624 251.0945 15.90523755  2777
STARLINK-32019          
1 60147U 24120N   24190.58334491 -.00940744  00000+0 -33017-2 0  9995
2 60147  53.1497 284.6108 0001246  64.4575 265.2204 15.90557593  2824
STARLINK-32021          
1 60148U 24120P   24190.58334491 -.00946936  00000+0 -33197-2 0  9994
2 60148  53.1496 284.6064 0001300  74.8622 256.9946 15.90592544  2986
STARLINK-32022          
1 60149U 24120Q   24190.50001157 -.01064205  33861-3 -33305-2 0  9994
2 60149  53.1497 285.0266 0001431  84.8549 130.9246 15.90801169  2992
STARLINK-32014          
1 60150U 24120R   24190.58334491 -.01054283  33245-3 -33237-2 0  9999
2 60150  53.1497 284.5989 0001202  77.8045 257.6425 15.90656784  2828
STARLINK-32004          
1 60151U 24120S   24190.58334491 -.01069072  34118-3 -33588-2 0  9991
2 60151  53.1496 284.5883 0001205  76.6440 263.9305 15.90726457  2989
STARLINK-32147          
1 60152U 24120T   24190.58334491 -.01061747  33684-3 -33415-2 0  9999
2 60152  53.1498 284.5935 0001172  72.4964 265.6345 15.90691724  2822
STARLINK-32131          
1 60153U 24120U   24190.58334491 -.01077448  34626-3 -33739-2 0  9991
2 60153  53.1496 284.5794 0001127  74.3205 270.4874 15.90792986  2983
STARLINK-32145          
1 60154U 24120V   24190.58334491 -.01070708  34223-3 -33585-2 0  9996
2 60154  53.1498 284.5840 0001156  67.5616 275.0909 15.90758477  2864
STARLINK-32137          
1 60155U 24120W   24189.91667824 -.01128110  38172-3 -32775-2 0  9999
2 60155  53.1498 287.9681 0001109  71.6642  53.6532 15.92253555  2735
STARLINK-32048          
1 60156U 24120X   24190.58334491 -.01086588  35184-3 -33913-2 0  9993
2 60156  53.1496 284.5704 0001054  75.1681 273.9368 15.90859284  2827
STARLINK-32129          
1 60157U 24120Y   24190.58334491 -.01089767  35381-3 -33957-2 0  9993
2 60157  53.1496 284.5660 0001105  66.9969 284.1611 15.90891464  2981
ZHONGXING-3A            
1 60179U 24122A   24181.68107238 -.00000084  00000+0  00000+0 0  9996
2 60179  15.4778 118.1248 7297127 179.7551 134.9782  2.28054641    08
CZ-7A R/B               
1 60180U 24122B   24190.37216104  .00440089  10427-5  27326-2 0  9992
2 60180  15.5059 114.3685 7187040 185.9038 155.1404  2.45887511   215
ALOS-4 (DAICHI-4)       
1 60182U 24123A   24190.24555362  .00000936  00000+0  11344-3 0  9990
2 60182  97.8747 286.6336 0002754 104.3747 255.7774 14.85968381  1055
2024-125A               
1 60203U 24125A   24190.56946133  .00010916  00000+0  51667-3 0  9992
2 60203  97.3213  43.3332 0025925 245.7203 167.8006 15.19219263   672
2024-125B               
1 60204U 24125B   24190.56452311  .00019288  00000+0  86635-3 0  9997
2 60204  97.3223  43.3417 0021463 231.7148 181.9989 15.20989274   668
2024-125C               
1 60205U 24125C   24190.56566853  .00012911  00000+0  58868-3 0  9998
2 60205  97.3217  43.3389 0021360 237.6174 176.1545 15.20564316   660
2024-125D               
1 60206U 24125D   24190.56883171  .00008496  00000+0  39578-3 0  9994
2 60206  97.3220  43.3375 0025651 238.4011 181.7072 15.19848381   668
2024-125E               
1 60207U 24125E   24190.57022269  .00008565  00000+0  40054-3 0  9997
2 60207  97.3220  43.3377 0025917 239.8777 185.5939 15.19705879   668
2024-125F               
1 60208U 24125F   24190.57167409  .00009093  00000+0  42753-3 0  9999
2 60208  97.3219  43.3380 0026083 241.2175 188.9188 15.19499130   679
2024-125G               
1 60209U 24125G   24190.56980029  .00010442  00000+0  49625-3 0  9995
2 60209  97.3214  43.3326 0025220 247.3842 166.3046 15.19109044   669
2024-125H               
1 60210U 24125H   24190.61607706  .00008108  00000+0  30231-3 0  9990
2 60210  97.3131  44.6467 0050243 238.0504 185.4372 15.26490133   668
2024-126A               
1 60211U 24126A   24190.63143428  .00008880  00000+0  10061-2 0  9995
2 60211  97.8245 197.0522 0002450 162.2595 198.3978 14.86615445   553
2024-126B               
1 60212U 24126B   24190.63089480  .00007305  00000+0  82491-3 0  9991
2 60212  97.8262 197.0540 0001241 182.6349 177.9193 14.86818523   557
2024-126C               
1 60213U 24126C   24190.62975443 -.00006801  00000+0 -75070-3 0  9991
2 60213  97.8257 197.0554 0000840 297.3691  62.8413 14.87206601   540
2024-126D               
1 60214U 24126D   24190.58704998  .00004733  00000+0  31581-3 0  9991
2 60214  97.8168 197.1091 0081121  17.0210 343.3707 15.04850052   496
NOAA 1                  
1 04793U 70106A   24190.38141457 -.00000022  00000+0  13604-3 0  9997
2 04793 101.4446 241.8009 0031026 295.7459  75.2537 12.54029387451844
NOAA 2 (ITOS-D)         
1 06235U 72082A   24190.56877606 -.00000024  00000+0  14227-3 0  9991
2 06235 102.0149 189.7871 0004527  81.1815  31.6199 12.53182186366188
NOAA 3                  
1 06920U 73086A   24190.58719670 -.00000034  00000+0  91734-4 0  9995
2 06920 102.2757 186.7629 0006527 350.7151 120.9907 12.40368349294041
NOAA 4                  
1 07529U 74089A   24190.62670449 -.00000033  00000+0  82811-4 0  9995
2 07529 101.9872 185.0856 0009422 106.3797  12.8303 12.53181430270763
NOAA 5                  
1 09057U 76077A   24190.54426876 -.00000026  00000+0  14873-3 0  9990
2 09057 102.2077 163.9344 0009378 194.1605 274.7783 12.37801791166791
TIROS N                 
1 11060U 78096A   24190.57600477  .00000263  00000+0  14643-3 0  9991
2 11060  98.5307 230.1698 0011460 130.3487 229.8692 14.18844069578248
NOAA 6                  
1 11416U 79057A   24190.59531252  .00000464  00000+0  18013-3 0  9998
2 11416  98.6277 211.7920 0009854 190.3403 169.7580 14.34563751349328
NOAA 7                  
1 12553U 81059A   24190.57935129  .00000089  00000+0  66095-4 0  9992
2 12553  98.8924 249.9221 0012308 130.4970 229.7279 14.17540517224343
NOAA 8                  
1 13923U 83022A   24190.56547017  .00000221  00000+0  10429-3 0  9997
2 13923  98.7298 190.5669 0015150 166.4201 193.7391 14.29270872150080
NOAA 9                  
1 15427U 84123A   24190.58323226  .00000172  00000+0  10930-3 0  9999
2 15427  99.1179 188.5446 0014460 191.9565 276.8246 14.16615564 43072
NOAA 10                 
1 16969U 86073A   24190.57696080  .00000211  00000+0  10138-3 0  9991
2 16969  98.6412 176.3093 0010913 270.0086 199.3751 14.28643634968200
NOAA 11                 
1 19531U 88089A   24190.49265478  .00000108  00000+0  76209-4 0  9999
2 19531  98.5192 152.1199 0011247 167.6798 192.4653 14.15548860847205
NOAA 12                 
1 21263U 91032A   24190.60184348  .00000168  00000+0  88071-4 0  9991
2 21263  98.5579 181.2349 0012675 302.2152  57.7799 14.26332715723935
NOAA 13                 
1 22739U 93050A   24190.59752640  .00000192  00000+0  12489-3 0  9992
2 22739  98.6069 147.2896 0009517 359.7923   0.3245 14.13234255593270
NOAA 14                 
1 23455U 94089A   24190.59601052  .00000089  00000+0  67627-4 0  9991
2 23455  98.4323 185.4151 0008787 327.5099  32.5533 14.14406970523029
NOAA 15                 
1 25338U 98030A   24190.55799234  .00000318  00000+0  14932-3 0  9994
2 25338  98.5674 217.2378 0009087 261.0070  99.0082 14.26622052360234
NOAA 16                 
1 26536U 00055A   24190.60074320  .00000147  00000+0  99644-4 0  9997
2 26536  98.5299 229.2186 0010696 168.3334 191.8089 14.13597257523602
NOAA 17                 
1 27453U 02032A   24190.61561410  .00000257  00000+0  12756-3 0  9995
2 27453  98.7636 141.1961 0010595 244.6704 115.3378 14.25608546146002
NOAA 18                 
1 28654U 05018A   24190.51851569  .00000272  00000+0  16858-3 0  9996
2 28654  98.8743 267.3065 0014144   7.5961 352.5423 14.13247855986183
NOAA 19                 
1 33591U 09005A   24190.54374463  .00000257  00000+0  16207-3 0  9999
2 33591  99.0460 246.5679 0013095 228.9721 131.0319 14.13042688794385
SUOMI NPP               
1 37849U 11061A   24190.54041167  .00000121  00000+0  78162-4 0  9995
2 37849  98.7222 128.2003 0001102 129.9850 230.1423 14.19526479657907
NOAA 20 (JPSS-1)        
1 43013U 17073A   24190.55761558  .00000122  00000+0  78747-4 0  9998
2 43013  98.7064 128.1219 0001838 125.5225 234.6122 14.19540495343937
NOAA 21 (JPSS-2)        
1 54234U 22150A   24190.59328405  .00000127  00000+0  81137-4 0  9993
2 54234  98.7518 128.2367 0001968  84.3105 275.8295 14.19535375 86018
ISS (ZARYA)             
1 25544U 98067A   24190.56404534  .00013045  00000+0  23848-3 0  9997
2 25544  51.6392 209.4226 0010396  44.2879  64.3622 15.49678225461863
CSS (TIANHE)            
1 48274U 21035A   24190.06248627  .00040181  00000+0  42013-3 0  9993
2 48274  41.4698 315.7013 0004433 346.3366  13.7353 15.63677246182363
ISS (NAUKA)             
1 49044U 21066A   24190.48013004  .00011448  00000+0  21040-3 0  9999
2 49044  51.6365 209.8439 0010263  43.5372 316.6426 15.49670314461087
